COSMOS 2251 DEB         
1 35901U 93036AUQ 17345.26229490  .00000869  00000-0  24331-3 0  9992
2 35901  74.0336 180.0997 0016292 257.5515 224.7011 14.47507111436244
